start=new Date('2021-12-16T00:00:00.000Z').valueOf();
sats=[{"OBJECT_ID":"2019-074R","TLE_LINE2":"2 44728  53.0483 219.1684 0002337 231.1290 129.1843 15.99307208116970","ELEMENT_SET_NO":"999","REV_AT_EPOCH":"11697","TIME_SYSTEM":"UTC","RA_OF_ASC_NODE":"219.1684","PERIAPSIS":"274.787","APOAPSIS":"277.897","MEAN_ANOMALY":"129.1843","TLE_LINE1":"1 44728U 19074R   21350.12351753  .01333534  95079-3  26799-2 0  9994","MEAN_MOTION":"15.99307208","MEAN_MOTION_DDOT":"0.0009507900000","MEAN_ELEMENT_THEORY":"SGP4","DECAY_DATE":null,"ECCENTRICITY":"0.00023370","ARG_OF_PERICENTER":"231.1290","SEMIMAJOR_AXIS":"6654.477","SITE":"AFETR","EPHEMERIS_TYPE":"0","CLASSIFICATION_TYPE":"U","INCLINATION":"53.0483","OBJECT_NAME":"STARLINK-1023","PERIOD":"90.039","MEAN_MOTION_DOT":"0.01333534","NORAD_CAT_ID":"44728","CENTER_NAME":"EARTH","REF_FRAME":"TEME","RCS_SIZE":"LARGE","OBJECT_TYPE":"PAYLOAD","LAUNCH_DATE":"2019-11-11","EPOCH":"2021-12-16T02:57:51.914592","FILE":"3241547","BSTAR":"0.00267990000000","COUNTRY_CODE":"US","GP_ID":"191801082"},{"MEAN_MOTION_DDOT":"0.0000000000000","MEAN_ELEMENT_THEORY":"SGP4","ECCENTRICITY":"0.00023200","DECAY_DATE":null,"ARG_OF_PERICENTER":"69.8116","SEMIMAJOR_AXIS":"6919.100","SITE":"AFETR","OBJECT_ID":"2019-074S","TLE_LINE2":"2 44729  53.0014 297.5511 0002320  69.8116 290.3123 15.08440968115663","ELEMENT_SET_NO":"999","REV_AT_EPOCH":"11566","TIME_SYSTEM":"UTC","RA_OF_ASC_NODE":"297.5511","PERIAPSIS":"539.360","APOAPSIS":"542.571","MEAN_ANOMALY":"290.3123","TLE_LINE1":"1 44729U 19074S   21349.89990441  .00005377  00000-0  35951-3 0  9998","MEAN_MOTION":"15.08440968","RCS_SIZE":"LARGE","OBJECT_TYPE":"PAYLOAD","LAUNCH_DATE":"2019-11-11","EPOCH":"2021-12-15T21:35:51.741024","FILE":"3241542","COUNTRY_CODE":"US","BSTAR":"0.00035951000000","GP_ID":"191796817","EPHEMERIS_TYPE":"0","CLASSIFICATION_TYPE":"U","INCLINATION":"53.0014","OBJECT_NAME":"STARLINK-1024","PERIOD":"95.463","NORAD_CAT_ID":"44729","MEAN_MOTION_DOT":"0.00005377","CENTER_NAME":"EARTH","REF_FRAME":"TEME"},{"RCS_SIZE":"LARGE","OBJECT_TYPE":"PAYLOAD","FILE":"3241011","COUNTRY_CODE":"US","BSTAR":"0.00000745850000","LAUNCH_DATE":"2019-11-11","EPOCH":"2021-12-15T12:48:05.448096","GP_ID":"191762484","CLASSIFICATION_TYPE":"U","EPHEMERIS_TYPE":"0","OBJECT_NAME":"STARLINK-1026","MEAN_MOTION_DOT":"-0.00000171","PERIOD":"95.592","NORAD_CAT_ID":"44731","INCLINATION":"53.0539","CENTER_NAME":"EARTH","REF_FRAME":"TEME","MEAN_ELEMENT_THEORY":"SGP4","ECCENTRICITY":"0.00023270","DECAY_DATE":null,"MEAN_MOTION_DDOT":"0.0000000000000","ARG_OF_PERICENTER":"57.9400","SITE":"AFETR","SEMIMAJOR_AXIS":"6925.359","TLE_LINE2":"2 44731  53.0539 283.0953 0002327  57.9400 302.1814 15.06396637115850","ELEMENT_SET_NO":"999","OBJECT_ID":"2019-074U","REV_AT_EPOCH":"11585","PERIAPSIS":"545.612","RA_OF_ASC_NODE":"283.0953","TIME_SYSTEM":"UTC","TLE_LINE1":"1 44731U 19074U   21349.53339639 -.00000171  00000-0  74585-5 0  9994","MEAN_ANOMALY":"302.1814","MEAN_MOTION":"15.06396637","APOAPSIS":"548.835"},{"SITE":"AFETR","SEMIMAJOR_AXIS":"6925.356","ECCENTRICITY":"0.00020520","DECAY_DATE":null,"MEAN_ELEMENT_THEORY":"SGP4","MEAN_MOTION_DDOT":"0.0000000000000","ARG_OF_PERICENTER":"63.4946","PERIAPSIS":"545.800","RA_OF_ASC_NODE":"302.8581","TIME_SYSTEM":"UTC","MEAN_MOTION":"15.06397657","TLE_LINE1":"1 44732U 19074V   21349.58684200  .00001008  00000-0  86552-4 0  9992","MEAN_ANOMALY":"296.6254","APOAPSIS":"548.642","ELEMENT_SET_NO":"999","TLE_LINE2":"2 44732  53.0545 302.8581 0002052  63.4946 296.6254 15.06397657115585","OBJECT_ID":"2019-074V","REV_AT_EPOCH":"11558","GP_ID":"191796315","OBJECT_TYPE":"PAYLOAD","RCS_SIZE":"LARGE","COUNTRY_CODE":"US","FILE":"3241542","BSTAR":"0.00008655200000","EPOCH":"2021-12-15T14:05:03.148800","LAUNCH_DATE":"2019-11-11","CENTER_NAME":"EARTH","REF_FRAME":"TEME","CLASSIFICATION_TYPE":"U","EPHEMERIS_TYPE":"0","NORAD_CAT_ID":"44732","PERIOD":"95.592","MEAN_MOTION_DOT":"0.00001008","OBJECT_NAME":"STARLINK-1027","INCLINATION":"53.0545"},{"INCLINATION":"53.0556","OBJECT_NAME":"STARLINK-1028","MEAN_MOTION_DOT":"0.00001363","PERIOD":"95.592","NORAD_CAT_ID":"44733","EPHEMERIS_TYPE":"0","CLASSIFICATION_TYPE":"U","REF_FRAME":"TEME","CENTER_NAME":"EARTH","LAUNCH_DATE":"2019-11-11","EPOCH":"2021-12-15T22:00:05.061600","BSTAR":"0.00011039000000","FILE":"3241542","COUNTRY_CODE":"US","RCS_SIZE":"LARGE","OBJECT_TYPE":"PAYLOAD","GP_ID":"191796567","REV_AT_EPOCH":"11591","OBJECT_ID":"2019-074W","TLE_LINE2":"2 44733  53.0556 281.3809 0002295  57.3314 302.7896 15.06399408115916","ELEMENT_SET_NO":"999","APOAPSIS":"548.805","TLE_LINE1":"1 44733U 19074W   21349.91672525  .00001363  00000-0  11039-3 0  9998","MEAN_ANOMALY":"302.7896","MEAN_MOTION":"15.06399408","RA_OF_ASC_NODE":"281.3809","TIME_SYSTEM":"UTC","PERIAPSIS":"545.626","ARG_OF_PERICENTER":"57.3314","MEAN_MOTION_DDOT":"0.0000000000000","MEAN_ELEMENT_THEORY":"SGP4","ECCENTRICITY":"0.00022950","DECAY_DATE":null,"SEMIMAJOR_AXIS":"6925.350","SITE":"AFETR"},{"REF_FRAME":"TEME","CENTER_NAME":"EARTH","OBJECT_NAME":"STARLINK-1029","MEAN_MOTION_DOT":"0.00000645","PERIOD":"95.592","NORAD_CAT_ID":"44734","INCLINATION":"53.0552","CLASSIFICATION_TYPE":"U","EPHEMERIS_TYPE":"0","GP_ID":"191797317","FILE":"3241542","COUNTRY_CODE":"US","BSTAR":"0.00006224000000","LAUNCH_DATE":"2019-11-11","EPOCH":"2021-12-15T20:45:47.427264","RCS_SIZE":"LARGE","OBJECT_TYPE":"PAYLOAD","MEAN_ANOMALY":"285.6533","TLE_LINE1":"1 44734U 19074X   21349.86513226  .00000645  00000-0  62240-4 0  9998","MEAN_MOTION":"15.06404357","APOAPSIS":"548.901","PERIAPSIS":"545.499","TIME_SYSTEM":"UTC","RA_OF_ASC_NODE":"201.5899","REV_AT_EPOCH":"11700","ELEMENT_SET_NO":"999","TLE_LINE2":"2 44734  53.0552 201.5899 0002456  74.4727 285.6533 15.06404357117002","OBJECT_ID":"2019-074X","SEMIMAJOR_AXIS":"6925.335","SITE":"AFETR","ARG_OF_PERICENTER":"74.4727","MEAN_ELEMENT_THEORY":"SGP4","DECAY_DATE":null,"ECCENTRICITY":"0.00024560","MEAN_MOTION_DDOT":"0.0000000000000"},{"APOAPSIS":"548.727","MEAN_MOTION":"15.06397064","TLE_LINE1":"1 44735U 19074Y   21349.66056200 -.00000133  00000-0  99832-5 0  9992","MEAN_ANOMALY":"299.1272","RA_OF_ASC_NODE":"302.5335","TIME_SYSTEM":"UTC","PERIAPSIS":"545.718","REV_AT_EPOCH":"11559","OBJECT_ID":"2019-074Y","ELEMENT_SET_NO":"999","TLE_LINE2":"2 44735  53.0538 302.5335 0002172  60.9934 299.1272 15.06397064115597","SEMIMAJOR_AXIS":"6925.358","SITE":"AFETR","ARG_OF_PERICENTER":"60.9934","MEAN_MOTION_DDOT":"0.0000000000000","ECCENTRICITY":"0.00021720","DECAY_DATE":null,"MEAN_ELEMENT_THEORY":"SGP4","REF_FRAME":"TEME","CENTER_NAME":"EARTH","INCLINATION":"53.0538","PERIOD":"95.592","MEAN_MOTION_DOT":"-0.00000133","NORAD_CAT_ID":"44735","OBJECT_NAME":"STARLINK-1030","EPHEMERIS_TYPE":"0","CLASSIFICATION_TYPE":"U","GP_ID":"191795566","EPOCH":"2021-12-15T15:51:12.556800","LAUNCH_DATE":"2019-11-11","FILE":"3241542","BSTAR":"0.00000998320000","COUNTRY_CODE":"US","OBJECT_TYPE":"PAYLOAD","RCS_SIZE":"LARGE"},{"SITE":"AFETR","SEMIMAJOR_AXIS":"6925.342","ECCENTRICITY":"0.00019330","DECAY_DATE":null,"MEAN_ELEMENT_THEORY":"SGP4","MEAN_MOTION_DDOT":"0.0000000000000","ARG_OF_PERICENTER":"65.2895","PERIAPSIS":"545.868","TIME_SYSTEM":"UTC","RA_OF_ASC_NODE":"302.7635","MEAN_MOTION":"15.06402088","TLE_LINE1":"1 44736U 19074Z   21349.60895532 -.00000270  00000-0  79287-6 0  9991","MEAN_ANOMALY":"294.8295","APOAPSIS":"548.546","ELEMENT_SET_NO":"999","TLE_LINE2":"2 44736  53.0555 302.7635 0001933  65.2895 294.8295 15.06402088115590","OBJECT_ID":"2019-074Z","REV_AT_EPOCH":"11559","GP_ID":"191795816","OBJECT_TYPE":"PAYLOAD","RCS_SIZE":"LARGE","FILE":"3241542","COUNTRY_CODE":"US","BSTAR":"0.00000079287000","EPOCH":"2021-12-15T14:36:53.739648","LAUNCH_DATE":"2019-11-11","CENTER_NAME":"EARTH","REF_FRAME":"TEME","CLASSIFICATION_TYPE":"U","EPHEMERIS_TYPE":"0","PERIOD":"95.592","MEAN_MOTION_DOT":"-0.00000270","NORAD_CAT_ID":"44736","OBJECT_NAME":"STARLINK-1031","INCLINATION":"53.0555"},{"ELEMENT_SET_NO":"999","TLE_LINE2":"2 44737  53.0555 304.8006 0002098  59.0448 301.0747 15.06402235115524","OBJECT_ID":"2019-074AA","REV_AT_EPOCH":"11552","PERIAPSIS":"545.754","TIME_SYSTEM":"UTC","RA_OF_ASC_NODE":"304.8006","MEAN_MOTION":"15.06402235","TLE_LINE1":"1 44737U 19074AA  21349.15557841  .00001140  00000-0  95425-4 0  9996","MEAN_ANOMALY":"301.0747","APOAPSIS":"548.660","DECAY_DATE":null,"ECCENTRICITY":"0.00020980","MEAN_ELEMENT_THEORY":"SGP4","MEAN_MOTION_DDOT":"0.0000000000000","ARG_OF_PERICENTER":"59.0448","SITE":"AFETR","SEMIMAJOR_AXIS":"6925.342","CLASSIFICATION_TYPE":"U","EPHEMERIS_TYPE":"0","MEAN_MOTION_DOT":"0.00001140","PERIOD":"95.592","NORAD_CAT_ID":"44737","OBJECT_NAME":"STARLINK-1032","INCLINATION":"53.0555","CENTER_NAME":"EARTH","REF_FRAME":"TEME","OBJECT_TYPE":"PAYLOAD","RCS_SIZE":"LARGE","COUNTRY_CODE":"US","FILE":"3241011","BSTAR":"0.00009542500000","EPOCH":"2021-12-15T03:44:01.974624","LAUNCH_DATE":"2019-11-11","GP_ID":"191761483"},{"REF_FRAME":"TEME","CENTER_NAME":"EARTH","INCLINATION":"53.0546","PERIOD":"95.592","NORAD_CAT_ID":"44738","MEAN_MOTION_DOT":"-0.00000384","OBJECT_NAME":"STARLINK-1033","EPHEMERIS_TYPE":"0","CLASSIFICATION_TYPE":"U","GP_ID":"191796818","EPOCH":"2021-12-15T14:31:35.222592","LAUNCH_DATE":"2019-11-11","FILE":"3241542","BSTAR":"-0.00000684790000","COUNTRY_CODE":"US","OBJECT_TYPE":"PAYLOAD","RCS_SIZE":"LARGE","APOAPSIS":"548.686","MEAN_MOTION":"15.06401833","MEAN_ANOMALY":"294.6265","TLE_LINE1":"1 44738U 19074AB  21349.60526878 -.00000384  00000-0 -68479-5 0  9994","TIME_SYSTEM":"UTC","RA_OF_ASC_NODE":"302.7621","PERIAPSIS":"545.730","REV_AT_EPOCH":"11558","OBJECT_ID":"2019-074AB","TLE_LINE2":"2 44738  53.0546 302.7621 0002134  65.4947 294.6265 15.06401833115582","ELEMENT_SET_NO":"999","SITE":"AFETR","SEMIMAJOR_AXIS":"6925.343","ARG_OF_PERICENTER":"65.4947","MEAN_MOTION_DDOT":"0.0000000000000","ECCENTRICITY":"0.00021340","DECAY_DATE":null,"MEAN_ELEMENT_THEORY":"SGP4"}];
